FENGYUN 1C DEB          
1 37596U 99025EKQ 17346.30571937  .00001143  00000-0  57784-3 0  9994
2 37596  99.0090  17.7167 0029879  94.6286 326.8934 14.17986086474299
